OBJECT_NAME,OBJECT_ID,EPOCH,MEAN_MOTION,ECCENTRICITY,INCLINATION,RA_OF_ASC_NODE,ARG_OF_PERICENTER,MEAN_ANOMALY,EPHEMERIS_TYPE,CLASSIFICATION_TYPE,NORAD_CAT_ID,ELEMENT_SET_NO,REV_AT_EPOCH,BSTAR,MEAN_MOTION_DOT,MEAN_MOTION_DDOT
ASNARO-2,2018-007A,2026-06-19T22:43:08.596128,15.22406146,.0001822,97.3974,177.8308,90.8748,269.2698,0,U,43152,999,46783,.32553508E-3,.7454E-4,0
JILIN-1 07,2018-008E,2026-06-19T21:31:03.280800,15.34760796,.00096908,97.1769,190.7529,57.3695,302.8483,0,U,43159,999,46541,.22247698E-3,.743E-4,0
JILIN-1 08,2018-008F,2026-06-19T21:33:58.219200,15.33738911,.00079228,97.1802,190.0686,72.8346,287.3764,0,U,43160,999,46536,.14867431E-3,.4778E-4,0
S-NET D,2018-014G,2026-06-19T18:30:15.322752,15.16692471,.00086885,97.5356,75.5454,22.2001,337.9606,0,U,43186,999,45915,.19898246E-3,.3833E-4,0
S-NET B,2018-014H,2026-06-19T18:46:49.202688,15.16663327,.00091728,97.5363,75.5433,17.0385,343.1155,0,U,43187,999,45915,.19517607E-3,.3755E-4,0
S-NET A,2018-014J,2026-06-19T16:53:36.967776,15.16699987,.00090624,97.5374,75.6746,17.9375,342.2176,0,U,43188,999,45914,.20092602E-3,.3872E-4,0
S-NET C,2018-014K,2026-06-19T18:52:25.226112,15.16655510,.00101839,97.5391,75.8316,9.2884,350.8536,0,U,43189,999,45770,.19660655E-3,.3783E-4,0
PAZ,2018-020A,2026-06-19T22:32:39.331104,15.19145298,.00017158,97.4453,178.2860,87.5801,272.5630,0,U,43215,999,46142,.69999275E-4,.1403E-4,0
GOES 17,2018-022A,2026-06-19T21:00:23.774688,1.00269498,.00005569,0.9450,85.6629,26.8399,21.1589,0,U,43226,999,3045,0,-.188E-5,0
LKW-4,2018-025A,2026-06-19T10:46:43.599936,15.62427153,.00019694,97.6350,341.4996,279.1806,80.9229,0,U,43236,999,46038,.44208914E-3,.39199E-3,0
ZHUHAI-1 OVS-02,2018-040B,2026-06-19T23:41:44.592288,15.25056051,.00020043,97.0387,188.0509,217.6227,142.4872,0,U,43440,999,45314,.24713068E-3,.6111E-4,0
ZHUHAI-1 OHS-02,2018-040C,2026-06-19T23:18:00.522432,15.25914419,.00083916,97.0370,194.9778,208.8019,151.2758,0,U,43441,999,11470,.24593218E-3,.6246E-4,0
GAOFEN-6,2018-048A,2026-06-19T22:00:50.119200,14.76598470,.00118187,97.9705,233.6295,157.0509,203.1232,0,U,43484,999,43379,-.33058525E-4,-.282E-5,0
LUOJIA-1 01,2018-048B,2026-06-19T22:22:59.060928,14.87292612,.00103583,97.8102,249.0763,109.1155,251.1183,0,U,43485,999,43462,.11611774E-3,.994E-5,0
PAKTES 1A,2018-056A,2026-06-19T22:35:52.709856,14.99112892,.00219397,98.1305,327.5463,97.4715,262.9001,0,U,43529,999,43233,.10259034E-3,.1187E-4,0
PRSS-1,2018-056B,2026-06-19T22:59:40.411104,14.81993426,.00015973,97.7817,238.7513,77.3957,282.7435,0,U,43530,999,42884,.12737286E-3,.959E-5,0
HAIYANG-1C,2018-068A,2026-06-19T21:30:27.355680,14.34178979,.00121234,98.5188,243.1653,87.1947,273.0625,0,U,43609,999,40747,-.22013858E-4,-.105E-5,0
SSTL S1-4,2018-071A,2026-06-19T21:31:57.660096,14.96180681,.0001259,97.5018,42.3989,110.1467,249.9891,0,U,43618,999,42334,.19797717E-4,.169E-5,0
HAIYANG-2B,2018-081A,2026-06-19T23:48:30.269664,13.79307016,.00002491,99.3283,179.7062,0.1179,359.9973,0,U,43655,999,38531,-.75004652E-4,-.121E-5,0
CFOSAT,2018-083A,2026-06-19T22:21:05.244480,15.16388605,.00024025,97.3605,175.3811,89.0815,271.0693,0,U,43662,999,42285,.13059862E-3,.2471E-4,0
TEN-KOH,2018-084G,2026-06-19T12:29:28.569984,15.02949767,.00115148,98.0771,2.9828,107.4797,252.7687,0,U,43677,999,41651,.10646057E-3,.1365E-4,0
DIWATA-2B,2018-084H,2026-06-19T21:41:51.271296,15.00463071,.00127311,98.1185,7.2300,161.4269,198.7420,0,U,43678,999,41662,.17018197E-3,.2079E-4,0
STARS-AO,2018-084J,2026-06-19T13:55:10.881120,15.17074017,.00030339,98.0497,24.6984,131.9417,228.2074,0,U,43679,999,41783,.22217157E-3,.4324E-4,0
AUTCUBE 2,2018-084K,2026-06-19T06:49:41.704608,15.10102080,.00099013,98.0708,16.5700,43.1941,317.0062,0,U,43681,999,41724,.15440469E-3,.2446E-4,0
METOP-C,2018-087A,2026-06-19T22:53:39.542496,14.21512774,.00018635,98.6643,230.5070,125.8190,234.3161,0,U,43689,999,39522,.5198627E-4,.7E-6,0
ES'HAIL 2,2018-090A,2026-06-19T19:50:32.521920,1.00272188,.00017836,0.0141,54.5765,70.0323,106.8506,0,U,43700,999,2770,0,.139E-5,0
MOHAMMED VI-B,2018-095A,2026-06-19T22:54:05.547168,14.77119279,.0001357,97.9553,243.2419,100.0245,260.1118,0,U,43717,999,40859,.42692041E-4,.251E-5,0
HYSIS,2018-096A,2026-06-19T20:24:55.473984,14.78618256,.00017754,97.9834,237.5779,96.0029,264.1384,0,U,43719,999,40781,-.17881945E-4,-.183E-5,0
COSMOS 2530 (RODNIK-S 16),2018-097A,2026-06-19T22:51:49.087872,12.42882069,.00200718,82.5130,220.5646,33.7954,326.4400,0,U,43751,999,34263,.14448308E-2,.21E-5,0
