ASNARO-2                
1 43152U 18007A   26170.94662727  .00007454  00000+0  32554-3 0  9991
2 43152  97.3974 177.8308 0001822  90.8748 269.2698 15.22406146467830
JILIN-1 07              
1 43159U 18008E   26170.89656575  .00007430  00000+0  22248-3 0  9990
2 43159  97.1769 190.7529 0009690  57.3695 302.8483 15.34760796465411
JILIN-1 08              
1 43160U 18008F   26170.89859050  .00004778  00000+0  14867-3 0  9995
2 43160  97.1802 190.0686 0007922  72.8346 287.3764 15.33738911465365
S-NET D                 
1 43186U 18014G   26170.77101068  .00003833  00000+0  19898-3 0  9996
2 43186  97.5356  75.5454 0008688  22.2001 337.9606 15.16692471459156
S-NET B                 
1 43187U 18014H   26170.78251392  .00003755  00000+0  19518-3 0  9996
2 43187  97.5363  75.5433 0009172  17.0385 343.1155 15.16663327459154
S-NET A                 
1 43188U 18014J   26170.70390009  .00003872  00000+0  20093-3 0  9998
2 43188  97.5374  75.6746 0009062  17.9375 342.2176 15.16699987459144
S-NET C                 
1 43189U 18014K   26170.78640308  .00003783  00000+0  19661-3 0  9997
2 43189  97.5391  75.8316 0010183   9.2884 350.8536 15.16655510457703
PAZ                     
1 43215U 18020A   26170.93934411  .00001403  00000+0  69999-4 0  9999
2 43215  97.4453 178.2860 0001715  87.5801 272.5630 15.19145298461421
GOES 17                 
1 43226U 18022A   26170.87527517 -.00000188  00000+0  00000+0 0  9994
2 43226   0.9450  85.6629 0000556  26.8399  21.1589  1.00269498 30453
LKW-4                   
1 43236U 18025A   26170.44911574  .00039199  00000+0  44209-3 0  9997
2 43236  97.6350 341.4996 0001969 279.1806  80.9229 15.62427153460381
ZHUHAI-1 OVS-02         
1 43440U 18040B   26170.98732167  .00006111  00000+0  24713-3 0  9995
2 43440  97.0387 188.0509 0002004 217.6227 142.4872 15.25056051453140
ZHUHAI-1 OHS-02         
1 43441U 18040C   26170.97083938  .00006246  00000+0  24593-3 0  9995
2 43441  97.0370 194.9778 0008391 208.8019 151.2758 15.25914419114701
GAOFEN-6                
1 43484U 18048A   26170.91724675 -.00000282  00000+0 -33059-4 0  9998
2 43484  97.9705 233.6295 0011818 157.0509 203.1232 14.76598470433798
LUOJIA-1 01             
1 43485U 18048B   26170.93262802  .00000994  00000+0  11612-3 0  9998
2 43485  97.8102 249.0763 0010358 109.1155 251.1183 14.87292612434625
PAKTES 1A               
1 43529U 18056A   26170.94158229  .00001187  00000+0  10259-3 0  9995
2 43529  98.1305 327.5463 0021939  97.4715 262.9001 14.99112892432339
PRSS-1                  
1 43530U 18056B   26170.95810661  .00000959  00000+0  12737-3 0  9992
2 43530  97.7817 238.7513 0001597  77.3957 282.7435 14.81993426428849
HAIYANG-1C              
1 43609U 18068A   26170.89614995 -.00000105  00000+0 -22014-4 0  9992
2 43609  98.5188 243.1653 0012123  87.1947 273.0625 14.34178979407472
SSTL S1-4               
1 43618U 18071A   26170.89719514  .00000169  00000+0  19798-4 0  9992
2 43618  97.5018  42.3989 0001259 110.1467 249.9891 14.96180681423348
HAIYANG-2B              
1 43655U 18081A   26170.99201701 -.00000121  00000+0 -75005-4 0  9992
2 43655  99.3283 179.7062 0000249   0.1179 359.9973 13.79307016385316
CFOSAT                  
1 43662U 18083A   26170.93131070  .00002471  00000+0  13060-3 0  9997
2 43662  97.3605 175.3811 0002402  89.0815 271.0693 15.16388605422850
TEN-KOH                 
1 43677U 18084G   26170.52046956  .00001365  00000+0  10646-3 0  9995
2 43677  98.0771   2.9828 0011514 107.4797 252.7687 15.02949767416511
DIWATA-2B               
1 43678U 18084H   26170.90406564  .00002079  00000+0  17018-3 0  9996
2 43678  98.1185   7.2300 0012731 161.4269 198.7420 15.00463071416624
STARS-AO                
1 43679U 18084J   26170.57998705  .00004324  00000+0  22217-3 0  9995
2 43679  98.0497  24.6984 0003033 131.9417 228.2074 15.17074017417837
AUTCUBE 2               
1 43681U 18084K   26170.28451047  .00002446  00000+0  15440-3 0  9992
2 43681  98.0708  16.5700 0009901  43.1941 317.0062 15.10102080417241
METOP-C                 
1 43689U 18087A   26170.95392989  .00000070  00000+0  51986-4 0  9993
2 43689  98.6643 230.5070 0001863 125.8190 234.3161 14.21512774395224
ES'HAIL 2               
1 43700U 18090A   26170.82676530  .00000139  00000+0  00000+0 0  9996
2 43700   0.0141  54.5765 0001783  70.0323 106.8506  1.00272188 27709
MOHAMMED VI-B           
1 43717U 18095A   26170.95423087  .00000251  00000+0  42692-4 0  9993
2 43717  97.9553 243.2419 0001357 100.0245 260.1118 14.77119279408598
HYSIS                   
1 43719U 18096A   26170.85064206 -.00000183  00000+0 -17882-4 0  9998
2 43719  97.9834 237.5779 0001775  96.0029 264.1384 14.78618256407818
COSMOS 2530 (RODNIK-S *)
1 43751U 18097A   26170.95265148  .00000210  00000+0  14448-2 0  9996
2 43751  82.5130 220.5646 0020071  33.7954 326.4400 12.42882069342636
